[{"OBJECT_NAME":"ONEWEB-0059","OBJECT_ID":"2020-008AH","EPOCH":"2026-03-09T22:37:08.623488","MEAN_MOTION":13.10371205,"ECCENTRICITY":0.00016655,"INCLINATION":87.8803,"RA_OF_ASC_NODE":56.0352,"ARG_OF_PERICENTER":102.322,"MEAN_ANOMALY":257.8094,"EPHEMERIS_TYPE":0,"CLASSIFICATION_TYPE":"U","NORAD_CAT_ID":45162,"ELEMENT_SET_NO":999,"REV_AT_EPOCH":29532,"BSTAR":-0.0014862615,"MEAN_MOTION_DOT":-5.06e-6,"MEAN_MOTION_DDOT":0},{"OBJECT_NAME":"CZ-6A DEB","OBJECT_ID":"2024-140ABW","EPOCH":"2026-03-08T23:43:10.503264","MEAN_MOTION":13.68650404,"ECCENTRICITY":0.03036171,"INCLINATION":88.4783,"RA_OF_ASC_NODE":259.2296,"ARG_OF_PERICENTER":283.9678,"MEAN_ANOMALY":72.7897,"EPHEMERIS_TYPE":0,"CLASSIFICATION_TYPE":"U","NORAD_CAT_ID":61806,"ELEMENT_SET_NO":999,"REV_AT_EPOCH":7541,"BSTAR":0.00059117967,"MEAN_MOTION_DOT":7.1e-6,"MEAN_MOTION_DDOT":0}]
